{
  "type": "FeatureCollection",
  "features": [
    {
      "type": "Feature",
      "properties": {
        "norad_id": 34036,
        "name": "COSMOS 2251 DEB",
        "group": "cosmos-2251-debris",
        "lat": 52.29562722323654,
        "lon": 166.1256708237632,
        "alt_km": 580.7283297185922,
        "timestamp": "2025-12-15T04:01:20.845536+00:00",
        "meta_object_name": "COSMOS 2251 DEB",
        "meta_object_id": "1993-036HX",
        "meta_epoch": "2025-12-14T05:17:36.132576",
        "meta_mean_motion": 14.95132206,
        "meta_eccentricity": 0.0011993,
        "meta_inclination": 74.0194,
        "meta_ra_of_asc_node": 146.2767,
        "meta_arg_of_pericenter": 178.345,
        "meta_mean_anomaly": 181.7776,
        "meta_ephemeris_type": 0,
        "meta_classification_type": "U",
        "meta_norad_cat_id": 34036,
        "meta_element_set_no": 999,
        "meta_rev_at_epoch": 88592,
        "meta_bstar": 0.0044445161,
        "meta_mean_motion_dot": 0.00049151,
        "meta_mean_motion_ddot": 0,
        "tle_line1": "1 34036U 93036HX  25348.22055709  .00049151  00000+0  44445-2 0  9991",
        "tle_line2": "2 34036  74.0194 146.2767 0011993 178.3450 181.7776 14.95132206885929"
      },
      "geometry": {
        "type": "Point",
        "coordinates": [
          166.1256708237632,
          52.29562722323654
        ]
      }
    },
    {
      "type": "Feature",
      "properties": {
        "norad_id": 34037,
        "name": "COSMOS 2251 DEB",
        "group": "cosmos-2251-debris",
        "lat": -50.052918796355684,
        "lon": 26.037258424517102,
        "alt_km": 814.1907333076697,
        "timestamp": "2025-12-15T04:01:20.845546+00:00",
        "meta_object_name": "COSMOS 2251 DEB",
        "meta_object_id": "1993-036HY",
        "meta_epoch": "2025-12-14T04:50:25.217664",
        "meta_mean_motion": 14.34670833,
        "meta_eccentricity": 0.00519245,
        "meta_inclination": 74.0526,
        "meta_ra_of_asc_node": 47.7668,
        "meta_arg_of_pericenter": 97.3319,
        "meta_mean_anomaly": 263.3739,
        "meta_ephemeris_type": 0,
        "meta_classification_type": "U",
        "meta_norad_cat_id": 34037,
        "meta_element_set_no": 999,
        "meta_rev_at_epoch": 87738,
        "meta_bstar": 0.00054489313,
        "meta_mean_motion_dot": 1.54e-05,
        "meta_mean_motion_ddot": 0,
        "tle_line1": "1 34037U 93036HY  25348.20168076  .00001540  00000+0  54489-3 0  9992",
        "tle_line2": "2 34037  74.0526  47.7668 0051924  97.3319 263.3739 14.34670833877389"
      },
      "geometry": {
        "type": "Point",
        "coordinates": [
          26.037258424517102,
          -50.052918796355684
        ]
      }
    },
    {
      "type": "Feature",
      "properties": {
        "norad_id": 34040,
        "name": "COSMOS 2251 DEB",
        "group": "cosmos-2251-debris",
        "lat": -22.978451743213984,
        "lon": 54.84367676397461,
        "alt_km": 809.0796517688768,
        "timestamp": "2025-12-15T04:01:20.845557+00:00",
        "meta_object_name": "COSMOS 2251 DEB",
        "meta_object_id": "1993-036JB",
        "meta_epoch": "2025-12-14T07:04:41.084544",
        "meta_mean_motion": 13.68376888,
        "meta_eccentricity": 0.03430817,
        "meta_inclination": 73.9559,
        "meta_ra_of_asc_node": 63.2936,
        "meta_arg_of_pericenter": 16.3473,
        "meta_mean_anomaly": 344.8383,
        "meta_ephemeris_type": 0,
        "meta_classification_type": "U",
        "meta_norad_cat_id": 34040,
        "meta_element_set_no": 999,
        "meta_rev_at_epoch": 83621,
        "meta_bstar": 0.0005744091,
        "meta_mean_motion_dot": 7.18e-06,
        "meta_mean_motion_ddot": 0,
        "tle_line1": "1 34040U 93036JB  25348.29491996  .00000718  00000+0  57441-3 0  9992",
        "tle_line2": "2 34040  73.9559  63.2936 0343081  16.3473 344.8383 13.68376888836214"
      },
      "geometry": {
        "type": "Point",
        "coordinates": [
          54.84367676397461,
          -22.978451743213984
        ]
      }
    },
    {
      "type": "Feature",
      "properties": {
        "norad_id": 34045,
        "name": "COSMOS 2251 DEB",
        "group": "cosmos-2251-debris",
        "lat": -12.896641134880973,
        "lon": -57.36765972823027,
        "alt_km": 768.6818410021942,
        "timestamp": "2025-12-15T04:01:20.845567+00:00",
        "meta_object_name": "COSMOS 2251 DEB",
        "meta_object_id": "1993-036JG",
        "meta_epoch": "2025-12-14T08:44:52.056096",
        "meta_mean_motion": 14.34069983,
        "meta_eccentricity": 0.00257327,
        "meta_inclination": 74.0392,
        "meta_ra_of_asc_node": 307.8584,
        "meta_arg_of_pericenter": 30.8538,
        "meta_mean_anomaly": 131.5174,
        "meta_ephemeris_type": 0,
        "meta_classification_type": "U",
        "meta_norad_cat_id": 34045,
        "meta_element_set_no": 999,
        "meta_rev_at_epoch": 88056,
        "meta_bstar": 0.00013237248,
        "meta_mean_motion_dot": 3.45e-06,
        "meta_mean_motion_ddot": 0,
        "tle_line1": "1 34045U 93036JG  25348.36449139  .00000345  00000+0  13237-3 0  9998",
        "tle_line2": "2 34045  74.0392 307.8584 0025732  30.8538 131.5174 14.34069983880560"
      },
      "geometry": {
        "type": "Point",
        "coordinates": [
          -57.36765972823027,
          -12.896641134880973
        ]
      }
    },
    {
      "type": "Feature",
      "properties": {
        "norad_id": 34046,
        "name": "COSMOS 2251 DEB",
        "group": "cosmos-2251-debris",
        "lat": 72.99438627697853,
        "lon": 75.28562140053887,
        "alt_km": 676.9418580032907,
        "timestamp": "2025-12-15T04:01:20.845577+00:00",
        "meta_object_name": "COSMOS 2251 DEB",
        "meta_object_id": "1993-036JH",
        "meta_epoch": "2025-12-14T03:00:05.907168",
        "meta_mean_motion": 14.46488852,
        "meta_eccentricity": 0.00744486,
        "meta_inclination": 74.0399,
        "meta_ra_of_asc_node": 7.8864,
        "meta_arg_of_pericenter": 90.891,
        "meta_mean_anomaly": 326.6024,
        "meta_ephemeris_type": 0,
        "meta_classification_type": "U",
        "meta_norad_cat_id": 34046,
        "meta_element_set_no": 999,
        "meta_rev_at_epoch": 87846,
        "meta_bstar": 0.0013435579,
        "meta_mean_motion_dot": 4.981e-05,
        "meta_mean_motion_ddot": 0,
        "tle_line1": "1 34046U 93036JH  25348.12506837  .00004981  00000+0  13436-2 0  9992",
        "tle_line2": "2 34046  74.0399   7.8864 0074448  90.8910 326.6024 14.46488852878464"
      },
      "geometry": {
        "type": "Point",
        "coordinates": [
          75.28562140053887,
          72.99438627697853
        ]
      }
    },
    {
      "type": "Feature",
      "properties": {
        "norad_id": 34050,
        "name": "COSMOS 2251 DEB",
        "group": "cosmos-2251-debris",
        "lat": -57.580226067474214,
        "lon": -147.42270839626553,
        "alt_km": 1068.4007395622002,
        "timestamp": "2025-12-15T04:01:20.845588+00:00",
        "meta_object_name": "COSMOS 2251 DEB",
        "meta_object_id": "1993-036JM",
        "meta_epoch": "2025-12-14T08:05:12.999264",
        "meta_mean_motion": 13.96185044,
        "meta_eccentricity": 0.02145606,
        "meta_inclination": 74.0883,
        "meta_ra_of_asc_node": 7.3125,
        "meta_arg_of_pericenter": 71.2178,
        "meta_mean_anomaly": 316.3165,
        "meta_ephemeris_type": 0,
        "meta_classification_type": "U",
        "meta_norad_cat_id": 34050,
        "meta_element_set_no": 999,
        "meta_rev_at_epoch": 85454,
        "meta_bstar": 0.00072176842,
        "meta_mean_motion_dot": 1.182e-05,
        "meta_mean_motion_ddot": 0,
        "tle_line1": "1 34050U 93036JM  25348.33695601  .00001182  00000+0  72177-3 0  9996",
        "tle_line2": "2 34050  74.0883   7.3125 0214560  71.2178 316.3165 13.96185044854548"
      },
      "geometry": {
        "type": "Point",
        "coordinates": [
          -147.42270839626553,
          -57.580226067474214
        ]
      }
    },
    {
      "type": "Feature",
      "properties": {
        "norad_id": 34053,
        "name": "COSMOS 2251 DEB",
        "group": "cosmos-2251-debris",
        "lat": 13.005719990276654,
        "lon": 54.42055068598439,
        "alt_km": 1311.2581760331013,
        "timestamp": "2025-12-15T04:01:20.845598+00:00",
        "meta_object_name": "COSMOS 2251 DEB",
        "meta_object_id": "1993-036JQ",
        "meta_epoch": "2025-12-14T04:05:36.887712",
        "meta_mean_motion": 13.49163736,
        "meta_eccentricity": 0.04223121,
        "meta_inclination": 73.8439,
        "meta_ra_of_asc_node": 239.8657,
        "meta_arg_of_pericenter": 28.1774,
        "meta_mean_anomaly": 334.1494,
        "meta_ephemeris_type": 0,
        "meta_classification_type": "U",
        "meta_norad_cat_id": 34053,
        "meta_element_set_no": 999,
        "meta_rev_at_epoch": 82703,
        "meta_bstar": 0.00089223838,
        "meta_mean_motion_dot": 9.52e-06,
        "meta_mean_motion_ddot": 0,
        "tle_line1": "1 34053U 93036JQ  25348.17056583  .00000952  00000+0  89224-3 0  9996",
        "tle_line2": "2 34053  73.8439 239.8657 0422312  28.1774 334.1494 13.49163736827035"
      },
      "geometry": {
        "type": "Point",
        "coordinates": [
          54.42055068598439,
          13.005719990276654
        ]
      }
    }
  ]
}